OBJECT_NAME,OBJECT_ID,EPOCH,MEAN_MOTION,ECCENTRICITY,INCLINATION,RA_OF_ASC_NODE,ARG_OF_PERICENTER,MEAN_ANOMALY,EPHEMERIS_TYPE,CLASSIFICATION_TYPE,NORAD_CAT_ID,ELEMENT_SET_NO,REV_AT_EPOCH,BSTAR,MEAN_MOTION_DOT,MEAN_MOTION_DDOT
STARLINK-36442,2026-005K,2026-07-22T16:11:32.448768,15.27597889,.00026346,42.9983,195.4025,265.6686,94.3865,0,U,67413,999,2934,.58549425E-3,.15894E-3,0
STARLINK-36506,2026-005L,2026-07-22T16:18:55.859616,15.27592979,.0001721,43.0002,195.4383,273.2644,86.8010,0,U,67414,999,2934,.78084921E-3,.21296E-3,0
STARLINK-36468,2026-005M,2026-07-21T08:19:00.807168,15.27582598,.00016625,42.9996,203.4981,273.9002,86.1659,0,U,67415,999,2913,.18035449E-3,.4704E-4,0
STARLINK-36487,2026-005N,2026-07-22T09:18:06.544800,15.27600425,.00020599,43.0018,197.5555,270.1310,89.9306,0,U,67416,999,2929,.52912322E-3,.14336E-3,0
STARLINK-36374,2026-005P,2026-07-22T16:50:23.820576,15.27572768,.00013638,43.0025,195.6116,268.8750,91.1946,0,U,67417,999,2934,.79931783E-3,.21794E-3,0
STARLINK-36455,2026-005Q,2026-07-22T08:48:30.296448,15.27601610,.00013038,43.0030,197.3949,272.9630,87.1073,0,U,67418,999,2929,.66795262E-3,.18176E-3,0
STARLINK-36424,2026-005R,2026-07-22T16:17:05.318592,15.27576740,.00006331,42.9962,195.4328,277.4027,82.6752,0,U,67419,999,2934,.6761623E-3,.18389E-3,0
STARLINK-35564,2026-005S,2026-07-22T16:46:42.954528,15.27595746,.00012457,42.9954,195.5910,57.3581,302.7390,0,U,67420,999,2934,.69717681E-3,.18981E-3,0
STARLINK-36431,2026-005T,2026-07-21T23:58:43.334688,15.27610721,.00022954,42.9989,199.8004,295.1056,64.9557,0,U,67421,999,2923,.53057364E-3,.14381E-3,0
STARLINK-36418,2026-005U,2026-07-22T16:05:59.146944,15.27586840,.00007491,42.9979,195.3719,322.3116,37.7683,0,U,67422,999,2934,.35802941E-3,.9605E-4,0
STARLINK-36465,2026-005V,2026-07-21T23:47:37.517280,15.27598630,.00055346,43.0006,199.7428,302.2231,57.8084,0,U,67423,999,2923,.71002076E-3,.19345E-3,0
STARLINK-36362,2026-005W,2026-07-21T17:10:38.330688,15.27601654,.00030008,43.0046,201.1076,269.5329,90.5179,0,U,67424,999,2919,.74774976E-3,.20386E-3,0
STARLINK-36447,2026-005X,2026-07-22T07:06:58.139136,15.27622001,.0001948,43.0013,197.7269,292.4855,67.5790,0,U,67425,999,2928,.98188238E-3,.26891E-3,0
STARLINK-36146,2026-005Y,2026-07-22T00:06:06.879456,15.27583134,.00061072,43.0047,199.8353,294.0489,65.9723,0,U,67426,999,2922,.49300803E-3,.13335E-3,0
STARLINK-36459,2026-005Z,2026-07-22T09:19:57.589536,15.27605159,.00017439,43.0011,197.5596,274.1360,85.9293,0,U,67427,999,2928,.69781809E-3,.19005E-3,0
STARLINK-36464,2026-005AA,2026-07-22T16:33:43.969536,15.27598540,.00018136,43.0033,195.5179,278.5468,81.5178,0,U,67428,999,2933,.7496173E-3,.20435E-3,0
STARLINK-36513,2026-005AB,2026-07-22T22:41:09.338208,15.27556094,.00006234,42.9972,193.9882,312.7422,47.3377,0,U,67429,999,2937,.66536117E-3,.18079E-3,0
STARLINK-36515,2026-005AC,2026-07-22T16:55:56.451936,15.27602368,.00014768,42.9976,195.6372,259.3719,100.6966,0,U,67430,999,2933,.81662925E-3,.22293E-3,0
STARLINK-36443,2026-005AD,2026-07-22T08:22:35.842080,15.27604349,.00013828,42.9985,197.2517,271.3146,88.7547,0,U,67431,999,2929,.82845648E-3,.22622E-3,0
STARLINK-36460,2026-005AE,2026-07-21T00:37:28.825248,15.27588560,.00014218,42.9989,205.3844,268.8976,91.1713,0,U,67432,999,2907,.28468838E-3,.7582E-4,0
STARLINK-36542,2026-008A,2026-07-22T06:50:44.840544,15.27600739,.00013389,43.0017,165.3900,267.6076,92.4622,0,U,67445,999,3015,.58400986E-3,.15853E-3,0
STARLINK-36539,2026-008B,2026-07-22T07:11:05.974080,15.27619100,.00009188,42.9995,165.4909,278.0920,81.9827,0,U,67446,999,3015,.7635724E-3,.20834E-3,0
STARLINK-36440,2026-008C,2026-07-22T07:16:26.554368,15.27639562,.00018358,43.0009,164.6431,278.9156,81.1487,0,U,67447,999,3016,.10781652E-2,.2958E-3,0
STARLINK-36423,2026-008D,2026-07-22T07:47:53.890656,15.27588529,.00008191,42.9987,164.8218,263.0992,96.9766,0,U,67448,999,3016,.32879542E-3,.8799E-4,0
STARLINK-36519,2026-008E,2026-07-22T22:17:30.405696,15.27609761,.00008091,42.9955,161.6074,165.1673,194.9202,0,U,67449,999,3025,.84722365E-3,.23146E-3,0
STARLINK-36525,2026-008F,2026-07-22T22:11:57.315552,15.27593488,.00007336,42.9997,161.5781,221.4632,138.6164,0,U,67450,999,3025,.44293357E-3,.11951E-3,0
STARLINK-36511,2026-008G,2026-07-22T21:03:42.659712,15.27599680,.0002052,43.0018,162.0943,272.0868,87.9748,0,U,67451,999,3024,.82119231E-3,.22418E-3,0
STARLINK-36524,2026-008H,2026-07-22T21:14:48.809760,15.27601695,.00009593,42.9952,162.1515,39.9299,320.1623,0,U,67452,999,3024,.73289621E-3,.19974E-3,0
STARLINK-36518,2026-008J,2026-07-22T06:37:47.142048,15.27595002,.00014118,43.0017,165.2963,263.8475,96.2215,0,U,67453,999,3015,.56206683E-3,.15244E-3,0
STARLINK-36517,2026-008K,2026-07-22T22:28:36.608448,15.27597927,.00010172,42.9994,161.6786,251.4669,108.6072,0,U,67454,999,3025,.55644187E-3,.1509E-3,0
STARLINK-36516,2026-008L,2026-07-21T23:42:18.885312,15.27582711,.00011359,42.9973,166.5832,274.3048,85.7673,0,U,67455,999,3011,.46428643E-3,.12537E-3,0
STARLINK-36493,2026-008M,2026-07-22T21:46:03.553248,15.27600681,.00054212,43.0083,161.4509,292.2378,67.7899,0,U,67456,999,3025,.92375899E-3,.25269E-3,0
STARLINK-36529,2026-008N,2026-07-22T22:23:03.950304,15.27613221,.00019976,43.0011,161.6389,48.2343,311.8679,0,U,67457,999,3025,.11406121E-2,.31291E-3,0
STARLINK-36528,2026-008P,2026-07-22T21:20:09.668256,15.27553920,.00014522,43.0001,161.2960,263.1562,96.9125,0,U,67458,999,3025,.10274354E-2,.28096E-3,0
STARLINK-36546,2026-008Q,2026-07-22T14:52:37.800480,15.27591080,.00012186,42.9985,163.5905,267.8759,92.1953,0,U,67459,999,3020,.38468917E-3,.10342E-3,0
STARLINK-36523,2026-008R,2026-07-22T14:43:24.459456,15.27545156,.0001422,43.0020,163.5426,252.4231,107.6465,0,U,67460,999,3020,.81927172E-3,.22327E-3,0
STARLINK-36522,2026-008S,2026-07-22T22:02:42.696672,15.27593696,.00004863,42.9941,161.5328,42.7282,317.3607,0,U,67461,999,3025,.71501323E-3,.19474E-3,0
STARLINK-36504,2026-008T,2026-07-22T07:49:44.679648,15.27595969,.00010314,42.9988,164.8159,263.1963,96.8771,0,U,67462,999,3016,.37956239E-3,.10202E-3,0
STARLINK-36505,2026-008U,2026-07-22T14:00:48.898656,15.27616470,.00012123,42.9984,163.3100,312.0374,48.0374,0,U,67463,999,3020,.60557457E-3,.16458E-3,0
STARLINK-36421,2026-008V,2026-07-22T21:25:41.931552,15.27609618,.00012654,42.9997,161.3354,271.4520,88.6187,0,U,67464,999,3025,.10286387E-2,.28178E-3,0
STARLINK-36437,2026-008W,2026-07-22T21:36:48.469536,15.27590492,.00010309,42.9976,161.3829,262.9520,97.1215,0,U,67465,999,3025,.79842606E-3,.21781E-3,0
STARLINK-36520,2026-008X,2026-07-22T06:58:08.846688,15.27600602,.00022582,43.0038,165.4196,286.2494,73.8109,0,U,67466,999,3015,.88783651E-3,.24266E-3,0
STARLINK-36425,2026-008Y,2026-07-22T22:30:28.247616,15.27609340,.00009766,43.0004,161.6846,243.7754,116.2997,0,U,67467,999,3025,.78415763E-3,.21398E-3,0
STARLINK-36414,2026-008Z,2026-07-21T00:00:42.729984,15.27583816,.00011166,42.9988,172.0556,267.0392,93.0332,0,U,67468,999,2996,.22104427E-3,.5826E-4,0
STARLINK-36441,2026-008AA,2026-07-22T22:36:00.567936,15.27583819,.00017717,43.0035,161.6978,269.2468,90.8181,0,U,67469,999,3025,.35956454E-3,.9646E-4,0
STARLINK-36454,2026-008AB,2026-07-21T23:44:10.176288,15.27605501,.00010356,42.9985,166.5755,280.2932,79.7803,0,U,67470,999,3011,.76180152E-3,.20776E-3,0
STARLINK-36334,2026-008AC,2026-07-22T14:54:28.801152,15.27571429,.00014335,43.0007,163.5861,260.2287,99.8402,0,U,67471,999,3020,.7679114E-3,.20924E-3,0
STARLINK-36269,2026-008AD,2026-07-22T06:43:20.223552,15.27602174,.0001675,43.0018,165.3281,260.6940,99.3722,0,U,67472,999,3015,.85374259E-3,.23321E-3,0
STARLINK-36408,2026-008AE,2026-07-22T22:13:48.532224,15.27603137,.00021222,43.0018,161.5737,287.6569,72.4051,0,U,67473,999,3025,.10474473E-2,.28695E-3,0
STARLINK-36551,2026-012A,2026-07-22T21:11:51.452160,15.27574133,.00009,43.0011,271.2803,30.8642,329.2263,0,U,67493,999,2843,.7613592E-3,.20744E-3,0
STARLINK-36396,2026-012B,2026-07-22T12:53:20.128992,15.27592570,.00017777,42.9997,273.0009,13.0522,347.0376,0,U,67494,999,2838,.67902925E-3,.18477E-3,0
STARLINK-36550,2026-012C,2026-07-22T14:44:06.990720,15.27594498,.00014815,42.9987,272.7071,266.3400,93.7282,0,U,67495,999,2839,.51258438E-3,.13876E-3,0
STARLINK-36534,2026-012D,2026-07-22T13:00:42.776064,15.27595114,.00019315,43.0001,273.0223,260.1854,99.8780,0,U,67496,999,2838,.73087915E-3,.19914E-3,0
STARLINK-36555,2026-012E,2026-07-22T13:04:24.762720,15.27599498,.00014051,43.0000,273.0406,285.0021,75.0676,0,U,67497,999,2838,.62871218E-3,.17089E-3,0
STARLINK-36081,2026-012F,2026-07-22T14:29:20.614848,15.27618755,.00017857,42.9991,272.6300,300.1248,59.9427,0,U,67498,999,2839,.14225661E-2,.39139E-3,0
STARLINK-36558,2026-012G,2026-07-22T12:49:37.271424,15.27612159,.00013586,42.9933,272.9659,134.5469,225.5494,0,U,67499,999,2838,.93508281E-3,.25584E-3,0
STARLINK-36557,2026-012H,2026-07-22T12:44:03.250752,15.27611876,.00016306,42.9994,272.9280,281.7713,78.2956,0,U,67500,999,2838,.10203888E-2,.27951E-3,0
STARLINK-36433,2026-012J,2026-07-22T14:12:38.894976,15.27602384,.00032903,43.0050,272.5319,272.4917,87.5558,0,U,67501,999,2839,.73263214E-3,.19968E-3,0
STARLINK-36554,2026-012K,2026-07-22T14:03:24.547392,15.27604176,.00017303,43.0024,272.4843,295.2969,64.7703,0,U,67502,999,2839,.63462023E-3,.17255E-3,0
STARLINK-36552,2026-012L,2026-07-21T14:25:26.898528,15.27623031,.00045124,43.0023,277.9857,241.8896,118.1500,0,U,67503,999,2824,-.45917983E-3,-.12898E-3,0
STARLINK-36512,2026-012M,2026-07-22T21:37:31.999584,15.27582937,.00012973,43.0048,270.5385,278.0828,81.9877,0,U,67504,999,2844,.58691099E-3,.15925E-3,0
STARLINK-36545,2026-012N,2026-07-22T13:41:11.798880,15.27575900,.00016709,43.0031,272.3558,281.9473,78.1191,0,U,67505,999,2839,.66812415E-3,.18166E-3,0
STARLINK-36553,2026-012P,2026-07-22T13:35:38.737248,15.27586305,.0000995,42.9979,272.3257,258.3445,101.7295,0,U,67506,999,2839,.63074589E-3,.17138E-3,0
